CCSDS_OMM_VERS,COMMENT,CREATION_DATE,ORIGINATOR,OBJECT_NAME,OBJECT_ID,CENTER_NAME,REF_FRAME,TIME_SYSTEM,MEAN_ELEMENT_THEORY,EPOCH,MEAN_MOTION,ECCENTRICITY,INCLINATION,RA_OF_ASC_NODE,ARG_OF_PERICENTER,MEAN_ANOMALY,EPHEMERIS_TYPE,CLASSIFICATION_TYPE,NORAD_CAT_ID,ELEMENT_SET_NO,REV_AT_EPOCH,BSTAR,MEAN_MOTION_DOT,MEAN_MOTION_DDOT,SEMIMAJOR_AXIS,PERIOD,APOAPSIS,PERIAPSIS,OBJECT_TYPE,RCS_SIZE,COUNTRY_CODE,LAUNCH_DATE,SITE,DECAY_DATE,FILE,GP_ID,TLE_LINE0,TLE_LINE1,TLE_LINE2
"2.0","GENERATED VIA SPACE-TRACK.ORG API","2020-11-07T14:46:10","18 SPCS","STARLINK-1694","2020-070N","EARTH","TEME","UTC","SGP4","2020-11-07T12:00:02.000160","15.62794666","0.00008620","52.9995","284.8370","85.3379","10.1510","0","U","46544","999","584","-0.00057428000000","-0.00052860","0.0000000000000","6757.725","92.142","380.173","379.008","PAYLOAD","","US","2020-10-06","AFETR","","2874632","165079195","0 STARLINK-1694","1 46544U 20070N   20312.50002315 -.00052860  00000-0 -57428-3 0  9998","2 46544  52.9995 284.8370 0000862  85.3379  10.1510 15.62794666  5844"
"2.0","GENERATED VIA SPACE-TRACK.ORG API","2020-11-07T17:57:51","18 SPCS","STARLINK-1694","2020-070N","EARTH","TEME","UTC","SGP4","2020-11-07T14:00:01.999872","15.62791063","0.00008240","52.9997","284.4284","91.0807","113.5119","0","U","46544","999","177","-0.00095501000000","-0.00087172","0.0000000000000","6757.736","92.142","380.157","379.044","PAYLOAD","","US","2020-10-06","AFETR","","2874722","165100478","0 STARLINK-1694","1 46544U 20070N   20312.58335648 -.00087172 +00000-0 -95501-3 0  9992","2 46544 052.9997 284.4284 0000824 091.0807 113.5119 15.62791063001773"
"2.0","GENERATED VIA SPACE-TRACK.ORG API","2020-11-08T05:03:59","18 SPCS","STARLINK-1694","2020-070N","EARTH","TEME","UTC","SGP4","2020-11-07T18:00:00.999648","15.62739344","0.00007940","52.9999","283.6114","103.5790","319.1672","0","U","46544","999","180","-0.00017851000000","-0.00016835","0.0000000000000","6757.885","92.145","380.286","379.213","PAYLOAD","","US","2020-10-06","AFETR","","2875047","165129420","0 STARLINK-1694","1 46544U 20070N   20312.75001157 -.00016835 +00000-0 -17851-3 0  9996","2 46544 052.9999 283.6114 0000794 103.5790 319.1672 15.62739344001800"
"2.0","GENERATED VIA SPACE-TRACK.ORG API","2020-11-11T16:36:54","18 SPCS","STARLINK-1694","2020-070N","EARTH","TEME","UTC","SGP4","2020-11-11T03:04:51.903264","15.62749371","0.00010090","52.9995","267.0688","99.8774","260.2353","0","U","46544","999","640","0.00013876000000","0.00012189","0.0000000000000","6757.856","92.145","380.403","379.039","PAYLOAD","","US","2020-10-06","AFETR","","2875082","165354719","0 STARLINK-1694","1 46544U 20070N   20316.12837851 +.00012189 +00000+0 +13876-3 0  9997","2 46544  52.9995 267.0688 0001009  99.8774 260.2353 15.62749371006401"
"2.0","GENERATED VIA SPACE-TRACK.ORG API","2020-11-12T04:51:34","18 SPCS","STARLINK-1694","2020-070N","EARTH","TEME","UTC","SGP4","2020-11-11T13:49:30.525600","15.62767900","0.00010840","52.9993","264.8756","92.1037","268.0100","0","U","46544","999","647","0.00030176000000","0.00027204","0.0000000000000","6757.802","92.144","380.400","378.935","PAYLOAD","","US","2020-10-06","AFETR","","2875084","165375930","0 STARLINK-1694","1 46544U 20070N   20316.57604775 +.00027204 +00000+0 +30176-3 0  9999","2 46544  52.9993 264.8756 0001084  92.1037 268.0100 15.62767900006472"
"2.0","GENERATED VIA SPACE-TRACK.ORG API","2020-11-12T18:00:49","18 SPCS","STARLINK-1694","2020-070N","EARTH","TEME","UTC","SGP4","2020-11-12T06:42:30.662784","15.62761157","0.00006650","52.9993","261.4304","91.2632","268.8457","0","U","46544","999","658","0.00029135000000","0.00026237","0.0000000000000","6757.822","92.144","380.136","379.237","PAYLOAD","","US","2020-10-06","AFETR","","2875085","165396658","0 STARLINK-1694","1 46544U 20070N   20317.27952156 +.00026237 +00000+0 +29135-3 0  9994","2 46544  52.9993 261.4304 0000665  91.2632 268.8457 15.62761157006582"
"2.0","GENERATED VIA SPACE-TRACK.ORG API","2020-11-13T20:33:19","18 SPCS","STARLINK-1694","2020-070N","EARTH","TEME","UTC","SGP4","2020-11-13T14:00:01.999872","15.62753073","0.00012580","53.0002","255.0465","95.9674","43.8054","0","U","46544","999","177","-0.00051250000000","-0.00047189","0.0000000000000","6757.845","92.145","380.560","378.860","PAYLOAD","","US","2020-10-06","AFETR","","2875088","165438564","0 STARLINK-1694","1 46544U 20070N   20318.58335648 -.00047189 +00000-0 -51250-3 0  9995","2 46544 053.0002 255.0465 0001258 095.9674 043.8054 15.62753073001776"
"2.0","GENERATED VIA SPACE-TRACK.ORG API","2020-11-14T05:37:11","18 SPCS","STARLINK-1694","2020-070N","EARTH","TEME","UTC","SGP4","2020-11-13T22:00:03.999744","15.62715472","0.00011660","53.0003","253.4144","97.5558","118.7304","0","U","46544","999","176","0.00004577900000","0.00003653","0.0000000000000","6757.954","92.147","380.607","379.031","PAYLOAD","","US","2020-10-06","AFETR","","2875091","165460710","0 STARLINK-1694","1 46544U 20070N   20318.91671296 +.00003653 +00000-0 +45779-4 0  9990","2 46544 053.0003 253.4144 0001166 097.5558 118.7304 15.62715472001760"
"2.0","GENERATED VIA SPACE-TRACK.ORG API","2020-11-14T17:10:29","18 SPCS","STARLINK-1694","2020-070N","EARTH","TEME","UTC","SGP4","2020-11-14T14:00:16.000128","15.62711937","0.00008490","52.9998","250.1493","100.5904","269.1680","0","U","46544","999","177","0.00025270000000","0.00022631","0.0000000000000","6757.964","92.147","380.402","379.255","PAYLOAD","","US","2020-10-06","AFETR","","2875134","165482038","0 STARLINK-1694","1 46544U 20070N   20319.58351852 +.00022631 +00000-0 +25270-3 0  9997","2 46544 052.9998 250.1493 0000849 100.5904 269.1680 15.62711937001770"
"2.0","GENERATED VIA SPACE-TRACK.ORG API","2020-11-15T04:11:24","18 SPCS","STARLINK-1694","2020-070N","EARTH","TEME","UTC","SGP4","2020-11-14T22:00:01.999584","15.62724822","0.00010220","53.0000","248.5183","99.7084","345.5015","0","U","46544","999","177","0.00011798000000","0.00010270","0.0000000000000","6757.927","92.146","380.482","379.101","PAYLOAD","","US","2020-10-06","AFETR","","2875184","165503411","0 STARLINK-1694","1 46544U 20070N   20319.91668981 +.00010270 +00000-0 +11798-3 0  9994","2 46544 053.0000 248.5183 0001022 099.7084 345.5015 15.62724822001773"
"2.0","GENERATED VIA SPACE-TRACK.ORG API","2020-11-15T19:49:19","18 SPCS","STARLINK-1694","2020-070N","EARTH","TEME","UTC","SGP4","2020-11-15T14:00:01.000224","15.62810637","0.00008400","53.0004","245.2537","98.4746","139.4469","0","U","46544","999","177","-0.00049187000000","-0.00045420","0.0000000000000","6757.679","92.141","380.112","378.977","PAYLOAD","","US","2020-10-06","AFETR","","2875256","165525268","0 STARLINK-1694","1 46544U 20070N   20320.58334491 -.00045420 +00000-0 -49187-3 0  9995","2 46544 053.0004 245.2537 0000840 098.4746 139.4469 15.62810637001775"
"2.0","GENERATED VIA SPACE-TRACK.ORG API","2020-11-16T03:18:46","18 SPCS","STARLINK-1694","2020-070N","EARTH","TEME","UTC","SGP4","2020-11-15T22:00:00.999936","15.62799737","0.00007510","53.0005","243.6218","92.3912","221.9714","0","U","46544","999","176","0.00001552500000","0.00000890","0.0000000000000","6757.711","92.142","380.083","379.068","PAYLOAD","","US","2020-10-06","AFETR","","2875293","165545951","0 STARLINK-1694","1 46544U 20070N   20320.91667824 +.00000890 +00000-0 +15525-4 0  9991","2 46544 053.0005 243.6218 0000751 092.3912 221.9714 15.62799737001769"
"2.0","GENERATED VIA SPACE-TRACK.ORG API","2020-11-16T23:08:35","18 SPCS","STARLINK-1694","2020-070N","EARTH","TEME","UTC","SGP4","2020-11-16T14:00:01.000224","15.62753820","0.00010150","52.9999","240.3569","93.0474","14.2064","0","U","46544","999","177","-0.00042862000000","-0.00039590","0.0000000000000","6757.843","92.145","380.394","379.022","PAYLOAD","","US","2020-10-06","AFETR","","2876066","165568288","0 STARLINK-1694","1 46544U 20070N   20321.58334491 -.00039590 +00000-0 -42862-3 0  9990","2 46544 052.9999 240.3569 0001015 093.0474 014.2064 15.62753820001772"
"2.0","GENERATED VIA SPACE-TRACK.ORG API","2020-11-17T00:16:11","18 SPCS","STARLINK-1694","2020-070N","EARTH","TEME","UTC","SGP4","2020-11-16T22:00:00.999936","15.62735300","0.00009390","52.9998","238.7255","88.5418","95.0955","0","U","46544","999","731","0.00007669400000","0.00006489","0.0000000000000","6757.896","92.146","380.396","379.127","PAYLOAD","","US","2020-10-06","AFETR","","2878021","165658880","0 STARLINK-1694","1 46544U 20070N   20321.91667824  .00006489  00000-0  76694-4 0  9996","2 46544  52.9998 238.7255 0000939  88.5418  95.0955 15.62735300  7310"
"2.0","GENERATED VIA SPACE-TRACK.ORG API","2020-11-17T04:27:52","18 SPCS","STARLINK-1694","2020-070N","EARTH","TEME","UTC","SGP4","2020-11-16T22:00:00.999936","15.62735300","0.00009390","52.9998","238.7255","88.5418","95.0955","0","U","46544","999","177","0.00007669400000","0.00006489","0.0000000000000","6757.896","92.146","380.396","379.127","PAYLOAD","","US","2020-10-06","AFETR","","2878084","165712717","0 STARLINK-1694","1 46544U 20070N   20321.91667824 +.00006489 +00000-0 +76694-4 0  9996","2 46544 052.9998 238.7255 0000939 088.5418 095.0955 15.62735300001774"
"2.0","GENERATED VIA SPACE-TRACK.ORG API","2020-11-17T21:32:50","18 SPCS","STARLINK-1694","2020-070N","EARTH","TEME","UTC","SGP4","2020-11-17T14:00:01.999872","15.62720477","0.00010970","52.9993","235.4604","91.1877","245.2601","0","U","46544","999","177","0.00053223000000","0.00048428","0.0000000000000","6757.939","92.146","380.545","379.063","PAYLOAD","","US","2020-10-06","AFETR","","2878308","165738383","0 STARLINK-1694","1 46544U 20070N   20322.58335648 +.00048428 +00000-0 +53223-3 0  9997","2 46544 052.9993 235.4604 0001097 091.1877 245.2601 15.62720477001772"
